{"type": "FeatureCollection", "features": [ {"type": "Feature", "properties": {"norad_id": 30411, "name": "FENGYUN 1C DEB", "group": "fengyun-1c-debris", "lat": -75.90005333947589, "lon": 54.143175831800235, "alt_km": 961.9004368936476, "timestamp": "2025-12-27T04:40:45.781851+00:00", "meta": {"OBJECT_NAME": "FENGYUN 1C DEB", "OBJECT_ID": "1999-025AEA", "EPOCH": "2025-12-26T06:59:19.184064", "MEAN_MOTION": 14.07725895, "ECCENTRICITY": 0.0123867, "INCLINATION": 98.5809, "RA_OF_ASC_NODE": 270.2342, "ARG_OF_PERICENTER": 68.4374, "MEAN_ANOMALY": 292.9944, "EPHEMERIS_TYPE": 0, "CLASSIFICATION_TYPE": "U", "NORAD_CAT_ID": 30411, "ELEMENT_SET_NO": 999, "REV_AT_EPOCH": 96174, "BSTAR": 0.0016669, "MEAN_MOTION_DOT": 2.985e-05, "MEAN_MOTION_DDOT": 0}, "tle": {"line1": "1 30411U 99025AEA 25360.29119426  .00002985  00000+0  16669-2 0  9997", "line2": "2 30411  98.5809 270.2342 0123867  68.4374 292.9944 14.07725895961743"}}, "geometry": {"type": "Point", "coordinates": [54.143175831800235, -75.90005333947589]}}, {"type": "Feature", "properties": {"norad_id": 30413, "name": "FENGYUN 1C DEB", "group": "fengyun-1c-debris", "lat": 26.643536361252842, "lon": 65.84228995032927, "alt_km": 752.9451258592644, "timestamp": "2025-12-27T04:40:45.781861+00:00", "meta": {"OBJECT_NAME": "FENGYUN 1C DEB", "OBJECT_ID": "1999-025AEC", "EPOCH": "2025-12-26T23:01:14.913696", "MEAN_MOTION": 14.32691553, "ECCENTRICITY": 0.00441509, "INCLINATION": 102.0623, "RA_OF_ASC_NODE": 239.3567, "ARG_OF_PERICENTER": 178.467, "MEAN_ANOMALY": 198.9157, "EPHEMERIS_TYPE": 0, "CLASSIFICATION_TYPE": "U", "NORAD_CAT_ID": 30413, "ELEMENT_SET_NO": 999, "REV_AT_EPOCH": 97343, "BSTAR": 0.0025069088, "MEAN_MOTION_DOT": 6.828e-05, "MEAN_MOTION_DDOT": 0}, "tle": {"line1": "1 30413U 99025AEC 25360.95920039  .00006828  00000+0  25069-2 0  9996", "line2": "2 30413 102.0623 239.3567 0044150 178.4670 198.9157 14.32691553973434"}}, "geometry": {"type": "Point", "coordinates": [65.84228995032927, 26.643536361252842]}}, {"type": "Feature", "properties": {"norad_id": 30414, "name": "FENGYUN 1C DEB", "group": "fengyun-1c-debris", "lat": -37.86375360299276, "lon": 166.31319120736393, "alt_km": 824.6619335448659, "timestamp": "2025-12-27T04:40:45.781871+00:00", "meta": {"OBJECT_NAME": "FENGYUN 1C DEB", "OBJECT_ID": "1999-025AED", "EPOCH": "2025-12-26T10:26:38.695776", "MEAN_MOTION": 14.34341067, "ECCENTRICITY": 0.0057679, "INCLINATION": 99.0808, "RA_OF_ASC_NODE": 158.3726, "ARG_OF_PERICENTER": 149.3855, "MEAN_ANOMALY": 211.0715, "EPHEMERIS_TYPE": 0, "CLASSIFICATION_TYPE": "U", "NORAD_CAT_ID": 30414, "ELEMENT_SET_NO": 999, "REV_AT_EPOCH": 97283, "BSTAR": 0.0025023, "MEAN_MOTION_DOT": 7.126e-05, "MEAN_MOTION_DDOT": 0}, "tle": {"line1": "1 30414U 99025AED 25360.43517009  .00007126  00000+0  25023-2 0  9991", "line2": "2 30414  99.0808 158.3726 0057679 149.3855 211.0715 14.34341067972838"}}, "geometry": {"type": "Point", "coordinates": [166.31319120736393, -37.86375360299276]}}, {"type": "Feature", "properties": {"norad_id": 30415, "name": "FENGYUN 1C DEB", "group": "fengyun-1c-debris", "lat": -70.64389693383761, "lon": -147.49291414234114, "alt_km": 843.9229336094031, "timestamp": "2025-12-27T04:40:45.781881+00:00", "meta": {"OBJECT_NAME": "FENGYUN 1C DEB", "OBJECT_ID": "1999-025AEE", "EPOCH": "2025-12-26T15:56:20.965920", "MEAN_MOTION": 13.68977813, "ECCENTRICITY": 0.024052, "INCLINATION": 99.6456, "RA_OF_ASC_NODE": 60.9288, "ARG_OF_PERICENTER": 233.6873, "MEAN_ANOMALY": 283.6555, "EPHEMERIS_TYPE": 0, "CLASSIFICATION_TYPE": "U", "NORAD_CAT_ID": 30415, "ELEMENT_SET_NO": 999, "REV_AT_EPOCH": 94068, "BSTAR": 0.00148, "MEAN_MOTION_DOT": 1.518e-05, "MEAN_MOTION_DDOT": 0}, "tle": {"line1": "1 30415U 99025AEE 25360.66413155  .00001518  00000+0  14800-2 0  9994", "line2": "2 30415  99.6456  60.9288 0240520 233.6873 283.6555 13.68977813940686"}}, "geometry": {"type": "Point", "coordinates": [-147.49291414234114, -70.64389693383761]}}, {"type": "Feature", "properties": {"norad_id": 30416, "name": "FENGYUN 1C DEB", "group": "fengyun-1c-debris", "lat": -41.20451085882063, "lon": 32.998304456586595, "alt_km": 930.9582520447402, "timestamp": "2025-12-27T04:40:45.781891+00:00", "meta": {"OBJECT_NAME": "FENGYUN 1C DEB", "OBJECT_ID": "1999-025AEF", "EPOCH": "2025-12-26T23:44:40.114752", "MEAN_MOTION": 14.02649637, "ECCENTRICITY": 0.00559079, "INCLINATION": 98.8354, "RA_OF_ASC_NODE": 24.9717, "ARG_OF_PERICENTER": 150.114, "MEAN_ANOMALY": 210.3238, "EPHEMERIS_TYPE": 0, "CLASSIFICATION_TYPE": "U", "NORAD_CAT_ID": 30416, "ELEMENT_SET_NO": 999, "REV_AT_EPOCH": 96824, "BSTAR": 0.00033315916, "MEAN_MOTION_DOT": 4.79e-06, "MEAN_MOTION_DDOT": 0}, "tle": {"line1": "1 30416U 99025AEF 25360.98935318  .00000479  00000+0  33316-3 0  9999", "line2": "2 30416  98.8354  24.9717 0055907 150.1140 210.3238 14.02649637968241"}}, "geometry": {"type": "Point", "coordinates": [32.998304456586595, -41.20451085882063]}}, {"type": "Feature", "properties": {"norad_id": 30417, "name": "FENGYUN 1C DEB", "group": "fengyun-1c-debris", "lat": 77.17054674573858, "lon": -51.413511083911054, "alt_km": 789.4437981879109, "timestamp": "2025-12-27T04:40:45.781901+00:00", "meta": {"OBJECT_NAME": "FENGYUN 1C DEB", "OBJECT_ID": "1999-025AEG", "EPOCH": "2025-12-26T23:19:22.910016", "MEAN_MOTION": 14.14678507, "ECCENTRICITY": 0.00646433, "INCLINATION": 98.694, "RA_OF_ASC_NODE": 350.5817, "ARG_OF_PERICENTER": 79.9044, "MEAN_ANOMALY": 304.6403, "EPHEMERIS_TYPE": 0, "CLASSIFICATION_TYPE": "U", "NORAD_CAT_ID": 30417, "ELEMENT_SET_NO": 999, "REV_AT_EPOCH": 97590, "BSTAR": 0.00031916237, "MEAN_MOTION_DOT": 5.84e-06, "MEAN_MOTION_DDOT": 0}, "tle": {"line1": "1 30417U 99025AEG 25360.97179294  .00000584  00000+0  31916-3 0  9993", "line2": "2 30417  98.6940 350.5817 0064643  79.9044 304.6403 14.14678507975901"}}, "geometry": {"type": "Point", "coordinates": [-51.413511083911054, 77.17054674573858]}}, {"type": "Feature", "properties": {"norad_id": 30418, "name": "FENGYUN 1C DEB", "group": "fengyun-1c-debris", "lat": -57.761310767116285, "lon": -31.74934321516987, "alt_km": 698.6561314885257, "timestamp": "2025-12-27T04:40:45.781911+00:00", "meta": {"OBJECT_NAME": "FENGYUN 1C DEB", "OBJECT_ID": "1999-025AEH", "EPOCH": "2025-12-26T23:19:56.187840", "MEAN_MOTION": 14.84402189, "ECCENTRICITY": 0.01109181, "INCLINATION": 98.8413, "RA_OF_ASC_NODE": 162.2921, "ARG_OF_PERICENTER": 70.5302, "MEAN_ANOMALY": 58.148, "EPHEMERIS_TYPE": 0, "CLASSIFICATION_TYPE": "U", "NORAD_CAT_ID": 30418, "ELEMENT_SET_NO": 999, "REV_AT_EPOCH": 803, "BSTAR": 0.00083567264, "MEAN_MOTION_DOT": 7.775e-05, "MEAN_MOTION_DDOT": 0}, "tle": {"line1": "1 30418U 99025AEH 25360.97217810  .00007775  00000+0  83567-3 0  9999", "line2": "2 30418  98.8413 162.2921 0110918  70.5302  58.1480 14.84402189  8039"}}, "geometry": {"type": "Point", "coordinates": [-31.74934321516987, -57.761310767116285]}}, {"type": "Feature", "properties": {"norad_id": 30419, "name": "FENGYUN 1C DEB", "group": "fengyun-1c-debris", "lat": 38.876802174880666, "lon": 136.11223398006194, "alt_km": 863.3264099053185, "timestamp": "2025-12-27T04:40:45.781921+00:00", "meta": {"OBJECT_NAME": "FENGYUN 1C DEB", "OBJECT_ID": "1999-025AEJ", "EPOCH": "2025-12-26T19:49:01.542720", "MEAN_MOTION": 14.18086924, "ECCENTRICITY": 0.00526032, "INCLINATION": 99.242, "RA_OF_ASC_NODE": 308.185, "ARG_OF_PERICENTER": 345.8999, "MEAN_ANOMALY": 70.1957, "EPHEMERIS_TYPE": 0, "CLASSIFICATION_TYPE": "U", "NORAD_CAT_ID": 30419, "ELEMENT_SET_NO": 999, "REV_AT_EPOCH": 97548, "BSTAR": 0.00090042846, "MEAN_MOTION_DOT": 1.824e-05, "MEAN_MOTION_DDOT": 0}, "tle": {"line1": "1 30419U 99025AEJ 25360.82571230  .00001824  00000+0  90043-3 0  9999", "line2": "2 30419  99.2420 308.1850 0052603 345.8999  70.1957 14.18086924975488"}}, "geometry": {"type": "Point", "coordinates": [136.11223398006194, 38.876802174880666]}}, {"type": "Feature", "properties": {"norad_id": 30432, "name": "FENGYUN 1C DEB", "group": "fengyun-1c-debris", "lat": -47.683661497130636, "lon": 70.70520318722862, "alt_km": 740.0665314502021, "timestamp": "2025-12-27T04:40:45.781931+00:00", "meta": {"OBJECT_NAME": "FENGYUN 1C DEB", "OBJECT_ID": "1999-025AET", "EPOCH": "2025-12-26T22:36:52.103808", "MEAN_MOTION": 14.40746125, "ECCENTRICITY": 0.0082161, "INCLINATION": 98.835, "RA_OF_ASC_NODE": 260.2805, "ARG_OF_PERICENTER": 296.7111, "MEAN_ANOMALY": 62.5684, "EPHEMERIS_TYPE": 0, "CLASSIFICATION_TYPE": "U", "NORAD_CAT_ID": 30432, "ELEMENT_SET_NO": 999, "REV_AT_EPOCH": 98939, "BSTAR": 0.00086166599, "MEAN_MOTION_DOT": 2.819e-05, "MEAN_MOTION_DDOT": 0}, "tle": {"line1": "1 30432U 99025AET 25360.94226972  .00002819  00000+0  86167-3 0  9994", "line2": "2 30432  98.8350 260.2805 0082161 296.7111  62.5684 14.40746125989398"}}, "geometry": {"type": "Point", "coordinates": [70.70520318722862, -47.683661497130636]}}, {"type": "Feature", "properties": {"norad_id": 30434, "name": "FENGYUN 1C DEB", "group": "fengyun-1c-debris", "lat": -58.36458704159966, "lon": 2.4666028203808756, "alt_km": 960.9749126546412, "timestamp": "2025-12-27T04:40:45.781941+00:00", "meta": {"OBJECT_NAME": "FENGYUN 1C DEB", "OBJECT_ID": "1999-025AEV", "EPOCH": "2025-12-26T22:20:13.661952", "MEAN_MOTION": 13.90662912, "ECCENTRICITY": 0.01211894, "INCLINATION": 99.0004, "RA_OF_ASC_NODE": 347.3028, "ARG_OF_PERICENTER": 192.407, "MEAN_ANOMALY": 224.521, "EPHEMERIS_TYPE": 0, "CLASSIFICATION_TYPE": "U", "NORAD_CAT_ID": 30434, "ELEMENT_SET_NO": 999, "REV_AT_EPOCH": 95904, "BSTAR": 0.00031209761, "MEAN_MOTION_DOT": 3.7e-06, "MEAN_MOTION_DDOT": 0}, "tle": {"line1": "1 30434U 99025AEV 25360.93071368  .00000370  00000+0  31210-3 0  9991", "line2": "2 30434  99.0004 347.3028 0121189 192.4070 224.5210 13.90662912959042"}}, "geometry": {"type": "Point", "coordinates": [2.4666028203808756, -58.36458704159966]}}]}